[
    {
        "Altitude(m)": 714396.3918392695,
        "Argument of Periapsis(deg)": 0.007973084830638947,
        "Eccentricity": 0.0,
        "Inclination(deg)": 45.0,
        "Latitude(deg)": -36.72516310726511,
        "Longitude(deg)": -28.43921787114636,
        "Mean Anomaly(deg)": -57.38124834676338,
        "RAAN(deg)": 119.99247364097924,
        "Satellite Name": "Constellation 1 546",
        "Satellite Number": 546,
        "Semi-Major Axis(m)": 7083131.272910544,
        "Time(s)": 133
    },
    {
        "Altitude(m)": 714384.5716556178,
        "Argument of Periapsis(deg)": 0.008033032836884352,
        "Eccentricity": 0.0,
        "Inclination(deg)": 45.0,
        "Latitude(deg)": -36.696340824466226,
        "Longitude(deg)": -28.376950334262865,
        "Mean Anomaly(deg)": -57.320547206513524,
        "RAAN(deg)": 119.99241705181369,
        "Satellite Name": "Constellation 1 546",
        "Satellite Number": 546,
        "Semi-Major Axis(m)": 7083131.272910544,
        "Time(s)": 134
    },
    {
        "Altitude(m)": 714372.7378434159,
        "Argument of Periapsis(deg)": 0.008092980843129758,
        "Eccentricity": 0.0,
        "Inclination(deg)": 45.0,
        "Latitude(deg)": -36.66748138673247,
        "Longitude(deg)": -28.314732218144865,
        "Mean Anomaly(deg)": -57.259846066263606,
        "RAAN(deg)": 119.9923604626481,
        "Satellite Name": "Constellation 1 546",
        "Satellite Number": 546,
        "Semi-Major Axis(m)": 7083131.272910544,
        "Time(s)": 135
    },
    {
        "Altitude(m)": 714360.8904453855,
        "Argument of Periapsis(deg)": 0.008152928849375162,
        "Eccentricity": 0.0,
        "Inclination(deg)": 45.0,
        "Latitude(deg)": -36.638584859615094,
        "Longitude(deg)": -28.252563497284765,
        "Mean Anomaly(deg)": -57.1991449260137,
        "RAAN(deg)": 119.99230387348254,
        "Satellite Name": "Constellation 1 546",
        "Satellite Number": 546,
        "Semi-Major Axis(m)": 7083131.272910544,
        "Time(s)": 136
    },
    {
        "Altitude(m)": 714349.0295042834,
        "Argument of Periapsis(deg)": 0.008212876855620568,
        "Eccentricity": 0.0,
        "Inclination(deg)": 45.0,
        "Latitude(deg)": -36.60965130861534,
        "Longitude(deg)": -28.190444145903477,
        "Mean Anomaly(deg)": -57.1384437857638,
        "RAAN(deg)": 119.99224728431699,
        "Satellite Name": "Constellation 1 546",
        "Satellite Number": 546,
        "Semi-Major Axis(m)": 7083131.272910544,
        "Time(s)": 137
    },
    {
        "Altitude(m)": 714337.1550629191,
        "Argument of Periapsis(deg)": 0.008272824861865974,
        "Eccentricity": 0.0,
        "Inclination(deg)": 45.0,
        "Latitude(deg)": -36.58068079918432,
        "Longitude(deg)": -28.128374137951894,
        "Mean Anomaly(deg)": -57.07774264551388,
        "RAAN(deg)": 119.9921906951514,
        "Satellite Name": "Constellation 1 546",
        "Satellite Number": 546,
        "Semi-Major Axis(m)": 7083131.272910544,
        "Time(s)": 138
    },
    {
        "Altitude(m)": 714325.2671641419,
        "Argument of Periapsis(deg)": 0.00833277286811138,
        "Eccentricity": 0.0,
        "Inclination(deg)": 45.0,
        "Latitude(deg)": -36.55167339672267,
        "Longitude(deg)": -28.06635344711215,
        "Mean Anomaly(deg)": -57.01704150526403,
        "RAAN(deg)": 119.99213410598584,
        "Satellite Name": "Constellation 1 546",
        "Satellite Number": 546,
        "Semi-Major Axis(m)": 7083131.272910544,
        "Time(s)": 139
    },
    {
        "Altitude(m)": 714313.3658508455,
        "Argument of Periapsis(deg)": 0.008392720874356788,
        "Eccentricity": 0.0,
        "Inclination(deg)": 45.0,
        "Latitude(deg)": -36.522629166580174,
        "Longitude(deg)": -28.004382046798924,
        "Mean Anomaly(deg)": -56.9563403650141,
        "RAAN(deg)": 119.99207751682025,
        "Satellite Name": "Constellation 1 546",
        "Satellite Number": 546,
        "Semi-Major Axis(m)": 7083131.272910544,
        "Time(s)": 140
    },
    {
        "Altitude(m)": 714301.4511659702,
        "Argument of Periapsis(deg)": 0.008452668880602192,
        "Eccentricity": 0.0,
        "Inclination(deg)": 45.0,
        "Latitude(deg)": -36.49354817405594,
        "Longitude(deg)": -27.94246007825817,
        "Mean Anomaly(deg)": -56.89563922476419,
        "RAAN(deg)": 119.99202092765469,
        "Satellite Name": "Constellation 1 546",
        "Satellite Number": 546,
        "Semi-Major Axis(m)": 7083131.272910544,
        "Time(s)": 141
    },
    {
        "Altitude(m)": 714289.5231524922,
        "Argument of Periapsis(deg)": 0.008512616886847598,
        "Eccentricity": 0.0,
        "Inclination(deg)": 45.0,
        "Latitude(deg)": -36.46443048439693,
        "Longitude(deg)": -27.880587178179688,
        "Mean Anomaly(deg)": -56.8349380845143,
        "RAAN(deg)": 119.99196433848914,
        "Satellite Name": "Constellation 1 546",
        "Satellite Number": 546,
        "Semi-Major Axis(m)": 7083131.272910544,
        "Time(s)": 142
    },
    {
        "Altitude(m)": 714277.5818534454,
        "Argument of Periapsis(deg)": 0.008572564893093004,
        "Eccentricity": 0.0,
        "Inclination(deg)": 45.0,
        "Latitude(deg)": -36.43527616279928,
        "Longitude(deg)": -27.81876348728157,
        "Mean Anomaly(deg)": -56.77423694426447,
        "RAAN(deg)": 119.99190774932354,
        "Satellite Name": "Constellation 1 546",
        "Satellite Number": 546,
        "Semi-Major Axis(m)": 7083131.272910544,
        "Time(s)": 143
    },
    {
        "Altitude(m)": 714265.6273118985,
        "Argument of Periapsis(deg)": 0.008632512899338408,
        "Eccentricity": 0.0,
        "Inclination(deg)": 45.0,
        "Latitude(deg)": -36.40608527440685,
        "Longitude(deg)": -27.756988977922347,
        "Mean Anomaly(deg)": -56.71353580401452,
        "RAAN(deg)": 119.99185116015799,
        "Satellite Name": "Constellation 1 546",
        "Satellite Number": 546,
        "Semi-Major Axis(m)": 7083131.272910544,
        "Time(s)": 144
    },
    {
        "Altitude(m)": 714253.6595709578,
        "Argument of Periapsis(deg)": 0.008692460905583814,
        "Eccentricity": 0.0,
        "Inclination(deg)": 45.0,
        "Latitude(deg)": -36.37685788431155,
        "Longitude(deg)": -27.695263622200464,
        "Mean Anomaly(deg)": -56.65283466376457,
        "RAAN(deg)": 119.99179457099241,
        "Satellite Name": "Constellation 1 546",
        "Satellite Number": 546,
        "Semi-Major Axis(m)": 7083131.272910544,
        "Time(s)": 145
    },
    {
        "Altitude(m)": 714241.6786737853,
        "Argument of Periapsis(deg)": 0.00875240891182922,
        "Eccentricity": 0.0,
        "Inclination(deg)": 45.0,
        "Latitude(deg)": -36.347594057552776,
        "Longitude(deg)": -27.63358739195506,
        "Mean Anomaly(deg)": -56.59213352351475,
        "RAAN(deg)": 119.99173798182684,
        "Satellite Name": "Constellation 1 546",
        "Satellite Number": 546,
        "Semi-Major Axis(m)": 7083131.272910544,
        "Time(s)": 146
    },
    {
        "Altitude(m)": 714229.6846635798,
        "Argument of Periapsis(deg)": 0.008812356918074627,
        "Eccentricity": 0.0,
        "Inclination(deg)": 45.0,
        "Latitude(deg)": -36.31829385911711,
        "Longitude(deg)": -27.57196025876696,
        "Mean Anomaly(deg)": -56.53143238326486,
        "RAAN(deg)": 119.99168139266129,
        "Satellite Name": "Constellation 1 546",
        "Satellite Number": 546,
        "Semi-Major Axis(m)": 7083131.272910544,
        "Time(s)": 147
    },
    {
        "Altitude(m)": 714217.6775835789,
        "Argument of Periapsis(deg)": 0.008872304924320031,
        "Eccentricity": 0.0,
        "Inclination(deg)": 45.0,
        "Latitude(deg)": -36.28895735393844,
        "Longitude(deg)": -27.51038236205778,
        "Mean Anomaly(deg)": -56.470731243014875,
        "RAAN(deg)": 119.9916248034957,
        "Satellite Name": "Constellation 1 546",
        "Satellite Number": 546,
        "Semi-Major Axis(m)": 7083131.272910544,
        "Time(s)": 148
    },
    {
        "Altitude(m)": 714205.6574770715,
        "Argument of Periapsis(deg)": 0.008932252930565437,
        "Eccentricity": 0.0,
        "Inclination(deg)": 45.0,
        "Latitude(deg)": -36.2595846068968,
        "Longitude(deg)": -27.44885333670262,
        "Mean Anomaly(deg)": -56.41003010276503,
        "RAAN(deg)": 119.99156821433014,
        "Satellite Name": "Constellation 1 546",
        "Satellite Number": 546,
        "Semi-Major Axis(m)": 7083131.272910544,
        "Time(s)": 149
    },
    {
        "Altitude(m)": 714193.6243873868,
        "Argument of Periapsis(deg)": 0.008992200936810843,
        "Eccentricity": 0.0,
        "Inclination(deg)": 45.0,
        "Latitude(deg)": -36.23017568281932,
        "Longitude(deg)": -27.387373321613843,
        "Mean Anomaly(deg)": -56.349328962515166,
        "RAAN(deg)": 119.99151162516456,
        "Satellite Name": "Constellation 1 546",
        "Satellite Number": 546,
        "Semi-Major Axis(m)": 7083131.272910544,
        "Time(s)": 150
    },
    {
        "Altitude(m)": 714181.5783578885,
        "Argument of Periapsis(deg)": 0.009052148943056249,
        "Eccentricity": 0.0,
        "Inclination(deg)": 45.0,
        "Latitude(deg)": -36.20073064647906,
        "Longitude(deg)": -27.325942287354078,
        "Mean Anomaly(deg)": -56.28862782226525,
        "RAAN(deg)": 119.991455035999,
        "Satellite Name": "Constellation 1 546",
        "Satellite Number": 546,
        "Semi-Major Axis(m)": 7083131.272910544,
        "Time(s)": 151
    }
]